[{"OBJECT_NAME":"STARLINK-4439","OBJECT_ID":"2022-099AK","EPOCH":"2026-03-09T22:22:49.209600","MEAN_MOTION":15.05646138,"ECCENTRICITY":9.779e-5,"INCLINATION":97.6028,"RA_OF_ASC_NODE":191.4074,"ARG_OF_PERICENTER":97.2398,"MEAN_ANOMALY":262.894,"EPHEMERIS_TYPE":0,"CLASSIFICATION_TYPE":"U","NORAD_CAT_ID":53498,"ELEMENT_SET_NO":999,"REV_AT_EPOCH":19608,"BSTAR":2.6099669e-5,"MEAN_MOTION_DOT":3.16e-6,"MEAN_MOTION_DDOT":0},{"OBJECT_NAME":"PSLV DEB","OBJECT_ID":"2001-049AH","EPOCH":"2026-03-09T23:39:21.767904","MEAN_MOTION":14.98984537,"ECCENTRICITY":0.00513683,"INCLINATION":98.1237,"RA_OF_ASC_NODE":87.2704,"ARG_OF_PERICENTER":48.4953,"MEAN_ANOMALY":9.0267,"EPHEMERIS_TYPE":0,"CLASSIFICATION_TYPE":"U","NORAD_CAT_ID":27089,"ELEMENT_SET_NO":999,"REV_AT_EPOCH":31452,"BSTAR":0.000212521,"MEAN_MOTION_DOT":2.577e-5,"MEAN_MOTION_DDOT":0}]
